0 OSCAR 23 DEB
1 33395U 88033K   13282.78073116  .00000131  00000-0  25205-3 0  3192
2 33395 090.3200 228.3659 0184642 302.2947 119.9872 13.27710684240738
0 OSCAR 23 DEB
1 33395U 88033K   13284.14401975  .00000232  00000-0  45693-3 0  3209
2 33395 090.3203 228.4082 0184582 298.4706 156.2131 13.27711181240919
0 OSCAR 23 DEB
1 33395U 88033K   13285.35392264  .00000163  00000-0  31709-3 0  3210
2 33395 090.3205 228.4457 0184496 295.0761 179.2850 13.27712119241078
0 OSCAR 23 DEB
1 33395U 88033K   13286.41079958  .00000137  00000-0  26445-3 0  3223
2 33395 090.3208 228.4785 0184388 292.1214 190.9191 13.27712914241213
0 OSCAR 23 DEB
1 33395U 88033K   13287.82772009  .00000209  00000-0  41062-3 0  3239
2 33395 090.3211 228.5225 0184321 288.1418 123.5078 13.27712715241401
0 OSCAR 23 DEB
1 33395U 88033K   13288.88485525  .00000263  00000-0  51984-3 0  3245
2 33395 090.3214 228.5555 0184279 285.1761 136.3932 13.27713375241549
0 OSCAR 23 DEB
1 33395U 88033K   13290.33920781  .00000197  00000-0  38533-3 0  3258
2 33395 090.3215 228.6009 0184241 281.0917 247.8963 13.27714392241735
0 OSCAR 23 DEB
1 33395U 88033K   13291.38393938  .00000208  00000-0  40761-3 0  3262
2 33395 090.3216 228.6336 0184174 278.1561 201.5048 13.27714668241878
0 OSCAR 23 DEB
1 33395U 88033K   13292.79629117  .00000283  00000-0  56014-3 0  3271
2 33395 090.3216 228.6778 0184113 274.1899 112.2662 13.27714651242065
0 OSCAR 23 DEB
1 33395U 88033K   13293.85885661  .00000250  00000-0  49405-3 0  3288
2 33395 090.3215 228.7111 0184075 271.2053 151.1153 13.27715609242200
0 OSCAR 23 DEB
1 33395U 88033K   13295.37770068  .00000202  00000-0  39601-3 0  3296
2 33395 090.3215 228.7586 0184005 266.9389 210.8891 13.27716760242405
